[{"OBJECT_NAME":"STARLINK-4377","OBJECT_ID":"2022-084AJ","EPOCH":"2026-03-09T17:32:45.229056","MEAN_MOTION":15.0125028,"ECCENTRICITY":0.00017874,"INCLINATION":97.6036,"RA_OF_ASC_NODE":130.2412,"ARG_OF_PERICENTER":133.258,"MEAN_ANOMALY":226.8794,"EPHEMERIS_TYPE":0,"CLASSIFICATION_TYPE":"U","NORAD_CAT_ID":53221,"ELEMENT_SET_NO":999,"REV_AT_EPOCH":19932,"BSTAR":-3.3090294e-5,"MEAN_MOTION_DOT":-4.83e-6,"MEAN_MOTION_DDOT":0},{"OBJECT_NAME":"HELIOS 1A","OBJECT_ID":"1995-033A","EPOCH":"2026-03-09T15:20:38.403168","MEAN_MOTION":15.05208405,"ECCENTRICITY":0.0012543,"INCLINATION":98.2085,"RA_OF_ASC_NODE":312.7113,"ARG_OF_PERICENTER":11.1866,"MEAN_ANOMALY":348.9636,"EPHEMERIS_TYPE":0,"CLASSIFICATION_TYPE":"U","NORAD_CAT_ID":23605,"ELEMENT_SET_NO":999,"REV_AT_EPOCH":65318,"BSTAR":0.00025897,"MEAN_MOTION_DOT":3.631e-5,"MEAN_MOTION_DDOT":0}]
